IRIDIUM 171             
1 43929U 19002H   25354.27485668  .00000245  00000+0  80541-4 0  9996
2 43929  86.3972  68.6539 0002407  98.0207 262.1262 14.34216585363316
IRIDIUM 170             
1 43930U 19002J   25354.27418450  .00000737  00000+0  11305-3 0  9990
2 43930  86.6082  68.3646 0002312  91.3530 268.7952 14.72253275372934
IRIDIUM 167             
1 43931U 19002K   25354.26850755  .00000207  00000+0  66697-4 0  9995
2 43931  86.3959  68.3904 0002521 101.7425 258.4053 14.34217958363319
IRIDIUM 181             
1 56726U 23068S   25354.30595847  .00000297  00000+0  82348-4 0  9991
2 56726  86.4518 131.5661 0002319  83.2985 276.8480 14.43312029136636
IRIDIUM 177             
1 56727U 23068T   25354.17835332  .00000893  00000+0  11409-3 0  9994
2 56727  86.1960  53.7971 0002219  86.1664 273.9811 14.80224580139880
IRIDIUM 174             
1 56728U 23068U   25354.19385247  .00000770  00000+0  11831-3 0  9995
2 56728  86.6091  68.5277 0002061  89.1972 270.9481 14.72246951139689
IRIDIUM 178             
1 56729U 23068V   25354.30260740  .00001259  00000+0  16227-3 0  9996
2 56729  86.6545 100.1394 0002475  92.5730 267.5775 14.80220167139909
IRIDIUM 179             
1 56730U 23068W   25354.36485595  .00001041  00000+0  13360-3 0  9995
2 56730  86.6785 108.5599 0002408  91.0583 269.0915 14.80229956139911
